ONEWEB-0564             
1 55801U 23029F   25073.82123175  .00000081  00000+0  16819-3 0  9997
2 55801  87.9338   5.8961 0001726  91.0343 269.0989 13.20772429100511
ONEWEB-0638             
1 55802U 23029G   25074.09836335 -.00000161  00000+0 -46977-3 0  9996
2 55802  87.9077  21.0465 0002176  94.9806 265.1572 13.14504407 99791
ONEWEB-0639             
1 55803U 23029H   25073.96124328 -.00000062  00000+0 -18805-3 0  9993
2 55803  87.9216  36.2525 0003015  70.9678 289.1781 13.19726036 98332
ONEWEB-0640             
1 55804U 23029J   25074.10787791 -.00000157  00000+0 -45920-3 0  9993
2 55804  87.9072  21.0347 0002569  90.9735 269.1689 13.14501653 99782
ONEWEB-0641             
1 55805U 23029K   25073.95650418 -.00000057  00000+0 -17400-3 0  9992
2 55805  87.9213  36.2282 0002097  77.3268 282.8099 13.19725604 98349
ONEWEB-0642             
1 55806U 23029L   25074.40666850  .00000010  00000+0 -83824-5 0  9994
2 55806  87.9215  36.1722 0002653  65.1396 295.0012 13.19725371 99089
ONEWEB-0643             
1 55807U 23029M   25074.38219207  .00003335  00000+0  89548-2 0  9990
2 55807  87.9077  20.9613 0002334  59.4240 300.7120 13.14528646 99823
ONEWEB-0644             
1 55808U 23029N   25073.94703135 -.00000012  00000+0 -61595-4 0  9995
2 55808  87.9218  36.2653 0002317  70.9645 289.1738 13.19724265 98333
